[{"OBJECT_NAME":"RISAT-2BR2","OBJECT_ID":"2020-081A","EPOCH":"2026-03-09T12:34:56.452800","MEAN_MOTION":15.01602463,"ECCENTRICITY":0.00109054,"INCLINATION":36.898,"RA_OF_ASC_NODE":95.9121,"ARG_OF_PERICENTER":52.9142,"MEAN_ANOMALY":307.2595,"EPHEMERIS_TYPE":0,"CLASSIFICATION_TYPE":"U","NORAD_CAT_ID":46905,"ELEMENT_SET_NO":999,"REV_AT_EPOCH":29248,"BSTAR":0.00037609291,"MEAN_MOTION_DOT":4.901e-5,"MEAN_MOTION_DDOT":0},{"OBJECT_NAME":"TIANPING 3B-01","OBJECT_ID":"2024-189B","EPOCH":"2026-03-09T23:37:36.067008","MEAN_MOTION":15.0098675,"ECCENTRICITY":0.00018984,"INCLINATION":97.5338,"RA_OF_ASC_NODE":92.2159,"ARG_OF_PERICENTER":36.3384,"MEAN_ANOMALY":323.7969,"EPHEMERIS_TYPE":0,"CLASSIFICATION_TYPE":"U","NORAD_CAT_ID":61615,"ELEMENT_SET_NO":999,"REV_AT_EPOCH":7556,"BSTAR":0.00029959959,"MEAN_MOTION_DOT":3.765e-5,"MEAN_MOTION_DDOT":0}]
